$$SOE
2461295.500000000, A.D. 2026-Sep-12 00:00:00.0000, 1.087986746658025E+08, -3.534094080458009E+08, -1.858947903638111E+07,
2461302.500000000, A.D. 2026-Sep-19 00:00:00.0000, 1.170572071263530E+08, -3.516638255940233E+08, -1.915722838253459E+07,
2461309.500000000, A.D. 2026-Sep-26 00:00:00.0000, 1.252045947294057E+08, -3.495842912616677E+08, -1.970678430359215E+07,
2461316.500000000, A.D. 2026-Oct-03 00:00:00.0000, 1.332337892533306E+08, -3.471747147738819E+08, -2.023773362111820E+07,
2461323.500000000, A.D. 2026-Oct-10 00:00:00.0000, 1.411377751244448E+08, -3.444388529387086E+08, -2.074966108389749E+07,
2461330.500000000, A.D. 2026-Oct-17 00:00:00.0000, 1.489095472852296E+08, -3.413803192713568E+08, -2.124214799279588E+07,
2461337.500000000, A.D. 2026-Oct-24 00:00:00.0000, 1.565420895784304E+08, -3.380025936675771E+08, -2.171477087154689E+07,
2461344.500000000, A.D. 2026-Oct-31 00:00:00.0000, 1.640283535827065E+08, -3.343090322441320E+08, -2.216710018713175E+07,
2461351.500000000, A.D. 2026-Nov-07 00:00:00.0000, 1.713612380842201E+08, -3.303028773324749E+08, -2.259869913468918E+07,
2461358.500000000, A.D. 2026-Nov-14 00:00:00.0000, 1.785335692344381E+08, -3.259872668072721E+08, -2.300912242324972E+07,
2461365.500000000, A.D. 2026-Nov-21 00:00:00.0000, 1.855380794329223E+08, -3.213652421434366E+08, -2.339791483116998E+07,
2461372.500000000, A.D. 2026-Nov-28 00:00:00.0000, 1.923673837880491E+08, -3.164397582900990E+08, -2.376460967661828E+07,
2461379.500000000, A.D. 2026-Dec-05 00:00:00.0000, 1.990139576278143E+08, -3.112136961065101E+08, -2.410872758009620E+07,
2461386.500000000, A.D. 2026-Dec-12 00:00:00.0000, 2.054701150781410E+08, -3.056898743514608E+08, -2.442977527151865E+07,
2461393.500000000, A.D. 2026-Dec-19 00:00:00.0000, 2.117279866695926E+08, -2.998710613365076E+08, -2.472724425997292E+07,
2461400.500000000, A.D. 2026-Dec-26 00:00:00.0000, 2.177794956722322E+08, -2.937599872420913E+08, -2.500060941582386E+07,
2461407.500000000, A.D. 2027-Jan-02 00:00:00.0000, 2.236163332694327E+08, -2.873593574358097E+08, -2.524932749789976E+07,
2461414.500000000, A.D. 2027-Jan-09 00:00:00.0000, 2.292299325134790E+08, -2.806718669419446E+08, -2.547283562668145E+07,
2461421.500000000, A.D. 2027-Jan-16 00:00:00.0000, 2.346114409126021E+08, -2.737002162470410E+08, -2.567054969783282E+07,
2461428.500000000, A.D. 2027-Jan-23 00:00:00.0000, 2.397516914961688E+08, -2.664471287022024E+08, -2.584186273530023E+07,
2461435.500000000, A.D. 2027-Jan-30 00:00:00.0000, 2.446411723332023E+08, -2.589153698231365E+08, -2.598614319687872E+07,
2461442.500000000, A.D. 2027-Feb-06 00:00:00.0000, 2.492699947036216E+08, -2.511077684429198E+08, -2.610273323531805E+07,
2461449.500000000, A.D. 2027-Feb-13 00:00:00.0000, 2.536278592195631E+08, -2.430272388449216E+08, -2.619094676519008E+07,
2461456.500000000, A.D. 2027-Feb-20 00:00:00.0000, 2.577040172674191E+08, -2.346768050713114E+08, -2.625006717566925E+07,
2461463.500000000, A.D. 2027-Feb-27 00:00:00.0000, 2.614872288770030E+08, -2.260596310880971E+08, -2.627934507243827E+07,
2461470.500000000, A.D. 2027-Mar-06 00:00:00.0000, 2.649657197264426E+08, -2.171790554304996E+08, -2.627799616164975E+07,
2461477.500000000, A.D. 2027-Mar-13 00:00:00.0000, 2.681271353522212E+08, -2.080386289255584E+08, -2.624519895614465E+07,
2461484.500000000, A.D. 2027-Mar-20 00:00:00.0000, 2.709584910801328E+08, -1.986421570907004E+08, -2.618009226464695E+07,
2461491.500000000, A.D. 2027-Mar-27 00:00:00.0000, 2.734461175003982E+08, -1.889937486608674E+08, -2.608177252575154E+07,
2461498.500000000, A.D. 2027-Apr-03 00:00:00.0000, 2.755756012904624E+08, -1.790978713642848E+08, -2.594929101106296E+07,
2461505.500000000, A.D. 2027-Apr-10 00:00:00.0000, 2.773317210319284E+08, -1.689594162011167E+08, -2.578165090795705E+07,
2461512.500000000, A.D. 2027-Apr-17 00:00:00.0000, 2.786983776206638E+08, -1.585837717662426E+08, -2.557780429871062E+07,
2461519.500000000, A.D. 2027-Apr-24 00:00:00.0000, 2.796585189266431E+08, -1.479769105079736E+08, -2.533664907101994E+07,
2461526.500000000, A.D. 2027-May-01 00:00:00.0000, 2.801940585959283E+08, -1.371454890876225E+08, -2.505702581961030E+07,
2461533.500000000, A.D. 2027-May-08 00:00:00.0000, 2.802857889433542E+08, -1.260969647226932E+08, -2.473771475628667E+07,
2461540.500000000, A.D. 2027-May-15 00:00:00.0000, 2.799132861765445E+08, -1.148397297294343E+08, -2.437743248601249E+07,
2461547.500000000, A.D. 2027-May-22 00:00:00.0000, 2.790548062827742E+08, -1.033832706774751E+08, -2.397482882186837E+07,
2461554.500000000, A.D. 2027-May-29 00:00:00.0000, 2.776871750893391E+08, -9.173835823987457E+07, -2.352848421490050E+07,
2461561.500000000, A.D. 2027-Jun-05 00:00:00.0000, 2.757856739379427E+08, -7.991727020869288E+07, -2.303690783169461E+07,
2461568.500000000, A.D. 2027-Jun-12 00:00:00.0000, 2.733239200967020E+08, -6.793405405225290E+07, -2.249853634646751E+07,
2461575.500000000, A.D. 2027-Jun-19 00:00:00.0000, 2.702737435399539E+08, -5.580483820186534E+07, -2.191173388447246E+07,
2461582.500000000, A.D. 2027-Jun-26 00:00:00.0000, 2.666050635512394E+08, -4.354820230987835E+07, -2.127479369621443E+07,
2461589.500000000, A.D. 2027-Jul-03 00:00:00.0000, 2.622857702222782E+08, -3.118561851108813E+07, -2.058594229941148E+07,
2461596.500000000, A.D. 2027-Jul-10 00:00:00.0000, 2.572816183624611E+08, -1.874197814195107E+07, -1.984334707857416E+07,
2461603.500000000, A.D. 2027-Jul-17 00:00:00.0000, 2.515561449551520E+08, -6.246221203035830E+06, -1.904512868966411E+07,
2461610.500000000, A.D. 2027-Jul-24 00:00:00.0000, 2.450706265586612E+08, 6.267911043785372E+06, -1.818938010706574E+07,
2461617.500000000, A.D. 2027-Jul-31 00:00:00.0000, 2.377841005479907E+08, 1.876097705413453E+07, -1.727419478738686E+07,
2461624.500000000, A.D. 2027-Aug-07 00:00:00.0000, 2.296534836454709E+08, 3.118676429738850E+07, -1.629770713998443E+07,
2461631.500000000, A.D. 2027-Aug-14 00:00:00.0000, 2.206338333005729E+08, 4.349101837178733E+07, -1.525814953433370E+07,
2461638.500000000, A.D. 2027-Aug-21 00:00:00.0000, 2.106788199001705E+08, 5.560994088811180E+07, -1.415393204439729E+07,
2461645.500000000, A.D. 2027-Aug-28 00:00:00.0000, 1.997415068732691E+08, 6.746843509217303E+07, -1.298375282456622E+07,
2461652.500000000, A.D. 2027-Sep-04 00:00:00.0000, 1.877755657458462E+08, 7.897809387392008E+07, -1.174674865148465E+07,
2461659.500000000, A.D. 2027-Sep-11 00:00:00.0000, 1.747370966309187E+08, 9.003495139659040E+07, -1.044269779927893E+07,
2461666.500000000, A.D. 2027-Sep-18 00:00:00.0000, 1.605872773737981E+08, 1.005170746323658E+08, -9.072289770347580E+06,
2461673.500000000, A.D. 2027-Sep-25 00:00:00.0000, 1.452961170084528E+08, 1.102821661051882E+08, -7.637477503079087E+06,
2461680.500000000, A.D. 2027-Oct-02 00:00:00.0000, 1.288476261229199E+08, 1.191655009217361E+08, -6.141925959288515E+06,
2461687.500000000, A.D. 2027-Oct-09 00:00:00.0000, 1.112467046016237E+08, 1.269787475932670E+08, -4.591563399538286E+06,
2461694.500000000, A.D. 2027-Oct-16 00:00:00.0000, 9.252792537756740E+07, 1.335105286411379E+08, -2.995223468381613E+06,
2461701.500000000, A.D. 2027-Oct-23 00:00:00.0000, 7.276606920492454E+07, 1.385299307020202E+08, -1.365331492382802E+06,
2461708.500000000, A.D. 2027-Oct-30 00:00:00.0000, 5.208763143784168E+07, 1.417944601854529E+08, 2.814676389489695E+05,
2461715.500000000, A.D. 2027-Nov-06 00:00:00.0000, 3.068151530305585E+07, 1.430639117409483E+08, 1.923917296970509E+06,
2461722.500000000, A.D. 2027-Nov-13 00:00:00.0000, 8.805876964191124E+06, 1.421208876363343E+08, 3.536241906119503E+06,
2461729.500000000, A.D. 2027-Nov-20 00:00:00.0000, -1.321289604087781E+07, 1.387969220315961E+08, 5.088994943428449E+06,
2461736.500000000, A.D. 2027-Nov-27 00:00:00.0000, -3.499289149594699E+07, 1.330003851902583E+08, 6.550835586171567E+06,
2461743.500000000, A.D. 2027-Dec-04 00:00:00.0000, -5.612255486523793E+07, 1.247395354739154E+08, 7.891149995492026E+06,
2461750.500000000, A.D. 2027-Dec-11 00:00:00.0000, -7.619680612842032E+07, 1.141331505300310E+08, 9.083073195219435E+06,
2461757.500000000, A.D. 2027-Dec-18 00:00:00.0000, -9.485575275176150E+07, 1.014037389045359E+08, 1.010619122881696E+07,
2461764.500000000, A.D. 2027-Dec-25 00:00:00.0000, -1.118163414173170E+08, 8.685397643712750E+07, 1.094821854254449E+07,
2461771.500000000, A.D. 2028-Jan-01 00:00:00.0000, -1.268896487806382E+08, 7.083280166301280E+07, 1.160529327353976E+07,
$$EOE